{"type": "FeatureCollection", "features": [ {"type": "Feature", "properties": {"norad_id": 34079, "name": "IRIDIUM 33 DEB", "group": "iridium-33-debris", "lat": -53.70782009353457, "lon": -172.18724595555568, "alt_km": 624.0881926313641, "timestamp": "2025-12-25T11:37:44.824096+00:00", "meta": {"OBJECT_NAME": "IRIDIUM 33 DEB", "OBJECT_ID": "1997-051CN", "EPOCH": "2025-12-25T01:08:56.152032", "MEAN_MOTION": 14.83849832, "ECCENTRICITY": 0.0004071, "INCLINATION": 86.3776, "RA_OF_ASC_NODE": 3.0626, "ARG_OF_PERICENTER": 321.815, "MEAN_ANOMALY": 100.8953, "EPHEMERIS_TYPE": 0, "CLASSIFICATION_TYPE": "U", "NORAD_CAT_ID": 34079, "ELEMENT_SET_NO": 999, "REV_AT_EPOCH": 89160, "BSTAR": 0.0019937, "MEAN_MOTION_DOT": 0.00016581, "MEAN_MOTION_DDOT": 0}, "tle": {"line1": "1 34079U 97051CN  25359.04787213  .00016581  00000+0  19937-2 0  9992", "line2": "2 34079  86.3776   3.0626 0004071 321.8150 100.8953 14.83849832891601"}}, "geometry": {"type": "Point", "coordinates": [-172.18724595555568, -53.70782009353457]}}, {"type": "Feature", "properties": {"norad_id": 34088, "name": "IRIDIUM 33 DEB", "group": "iridium-33-debris", "lat": -29.561384121817554, "lon": 22.809078729296495, "alt_km": 602.674273117168, "timestamp": "2025-12-25T11:37:44.824107+00:00", "meta": {"OBJECT_NAME": "IRIDIUM 33 DEB", "OBJECT_ID": "1997-051CX", "EPOCH": "2025-12-25T00:46:48.781920", "MEAN_MOTION": 14.91924983, "ECCENTRICITY": 0.0007024, "INCLINATION": 86.3841, "RA_OF_ASC_NODE": 25.0724, "ARG_OF_PERICENTER": 138.3667, "MEAN_ANOMALY": 285.8746, "EPHEMERIS_TYPE": 0, "CLASSIFICATION_TYPE": "U", "NORAD_CAT_ID": 34088, "ELEMENT_SET_NO": 999, "REV_AT_EPOCH": 88925, "BSTAR": 0.0025489, "MEAN_MOTION_DOT": 0.00025881, "MEAN_MOTION_DDOT": 0}, "tle": {"line1": "1 34088U 97051CX  25359.03250905  .00025881  00000+0  25489-2 0  9996", "line2": "2 34088  86.3841  25.0724 0007024 138.3667 285.8746 14.91924983889254"}}, "geometry": {"type": "Point", "coordinates": [22.809078729296495, -29.561384121817554]}}, {"type": "Feature", "properties": {"norad_id": 34091, "name": "IRIDIUM 33 DEB", "group": "iridium-33-debris", "lat": 84.57385635674534, "lon": 103.33077762047289, "alt_km": 636.0494909864019, "timestamp": "2025-12-25T11:37:44.824117+00:00", "meta": {"OBJECT_NAME": "IRIDIUM 33 DEB", "OBJECT_ID": "1997-051DA", "EPOCH": "2025-12-24T22:16:58.173312", "MEAN_MOTION": 14.82700275, "ECCENTRICITY": 0.003435, "INCLINATION": 86.342, "RA_OF_ASC_NODE": 61.2483, "ARG_OF_PERICENTER": 249.729, "MEAN_ANOMALY": 110.024, "EPHEMERIS_TYPE": 0, "CLASSIFICATION_TYPE": "U", "NORAD_CAT_ID": 34091, "ELEMENT_SET_NO": 999, "REV_AT_EPOCH": 88047, "BSTAR": 0.0051867, "MEAN_MOTION_DOT": 0.00042498, "MEAN_MOTION_DDOT": 0}, "tle": {"line1": "1 34091U 97051DA  25358.92845108  .00042498  00000+0  51867-2 0  9994", "line2": "2 34091  86.3420  61.2483 0034350 249.7290 110.0240 14.82700275880475"}}, "geometry": {"type": "Point", "coordinates": [103.33077762047289, 84.57385635674534]}}, {"type": "Feature", "properties": {"norad_id": 34097, "name": "IRIDIUM 33 DEB", "group": "iridium-33-debris", "lat": -39.47156819427486, "lon": -7.355824763644201, "alt_km": 723.7803434952093, "timestamp": "2025-12-25T11:37:44.824128+00:00", "meta": {"OBJECT_NAME": "IRIDIUM 33 DEB", "OBJECT_ID": "1997-051DG", "EPOCH": "2025-12-25T00:05:41.420832", "MEAN_MOTION": 14.34875051, "ECCENTRICITY": 0.0081414, "INCLINATION": 86.2004, "RA_OF_ASC_NODE": 355.9934, "ARG_OF_PERICENTER": 322.038, "MEAN_ANOMALY": 37.5093, "EPHEMERIS_TYPE": 0, "CLASSIFICATION_TYPE": "U", "NORAD_CAT_ID": 34097, "ELEMENT_SET_NO": 999, "REV_AT_EPOCH": 87295, "BSTAR": 0.0016722, "MEAN_MOTION_DOT": 4.948e-05, "MEAN_MOTION_DDOT": 0}, "tle": {"line1": "1 34097U 97051DG  25359.00395163  .00004948  00000+0  16722-2 0  9990", "line2": "2 34097  86.2004 355.9934 0081414 322.0380  37.5093 14.34875051872955"}}, "geometry": {"type": "Point", "coordinates": [-7.355824763644201, -39.47156819427486]}}, {"type": "Feature", "properties": {"norad_id": 34145, "name": "IRIDIUM 33 DEB", "group": "iridium-33-debris", "lat": -33.901058515775354, "lon": 149.40168576611998, "alt_km": 794.3285173691957, "timestamp": "2025-12-25T11:37:44.824138+00:00", "meta": {"OBJECT_NAME": "IRIDIUM 33 DEB", "OBJECT_ID": "1997-051DY", "EPOCH": "2025-12-23T08:41:39.975936", "MEAN_MOTION": 14.42361739, "ECCENTRICITY": 0.00555944, "INCLINATION": 86.2126, "RA_OF_ASC_NODE": 327.7951, "ARG_OF_PERICENTER": 60.0799, "MEAN_ANOMALY": 300.5906, "EPHEMERIS_TYPE": 0, "CLASSIFICATION_TYPE": "U", "NORAD_CAT_ID": 34145, "ELEMENT_SET_NO": 999, "REV_AT_EPOCH": 87791, "BSTAR": 0.0012419771, "MEAN_MOTION_DOT": 4.2e-05, "MEAN_MOTION_DDOT": 0}, "tle": {"line1": "1 34145U 97051DY  25357.36226824  .00004200  00000+0  12420-2 0  9990", "line2": "2 34145  86.2126 327.7951 0055594  60.0799 300.5906 14.42361739877912"}}, "geometry": {"type": "Point", "coordinates": [149.40168576611998, -33.901058515775354]}}, {"type": "Feature", "properties": {"norad_id": 34146, "name": "IRIDIUM 33 DEB", "group": "iridium-33-debris", "lat": 19.102933372030602, "lon": 162.87978349683854, "alt_km": 710.5119770395777, "timestamp": "2025-12-25T11:37:44.824149+00:00", "meta": {"OBJECT_NAME": "IRIDIUM 33 DEB", "OBJECT_ID": "1997-051DZ", "EPOCH": "2025-12-24T23:34:34.582944", "MEAN_MOTION": 14.49125914, "ECCENTRICITY": 0.0026876, "INCLINATION": 86.2842, "RA_OF_ASC_NODE": 344.3912, "ARG_OF_PERICENTER": 179.4306, "MEAN_ANOMALY": 243.1645, "EPHEMERIS_TYPE": 0, "CLASSIFICATION_TYPE": "U", "NORAD_CAT_ID": 34146, "ELEMENT_SET_NO": 999, "REV_AT_EPOCH": 88284, "BSTAR": 0.00094319, "MEAN_MOTION_DOT": 3.621e-05, "MEAN_MOTION_DDOT": 0}, "tle": {"line1": "1 34146U 97051DZ  25358.98234471  .00003621  00000+0  94319-3 0  9991", "line2": "2 34146  86.2842 344.3912 0026876 179.4306 243.1645 14.49125914882840"}}, "geometry": {"type": "Point", "coordinates": [162.87978349683854, 19.102933372030602]}}, {"type": "Feature", "properties": {"norad_id": 34159, "name": "IRIDIUM 33 DEB", "group": "iridium-33-debris", "lat": 68.94860405128456, "lon": -146.7425071848408, "alt_km": 769.3213438858311, "timestamp": "2025-12-25T11:37:44.824159+00:00", "meta": {"OBJECT_NAME": "IRIDIUM 33 DEB", "OBJECT_ID": "1997-051EN", "EPOCH": "2025-12-25T02:46:00.543648", "MEAN_MOTION": 14.38523185, "ECCENTRICITY": 0.0026227, "INCLINATION": 86.3491, "RA_OF_ASC_NODE": 42.9636, "ARG_OF_PERICENTER": 244.0886, "MEAN_ANOMALY": 115.7609, "EPHEMERIS_TYPE": 0, "CLASSIFICATION_TYPE": "U", "NORAD_CAT_ID": 34159, "ELEMENT_SET_NO": 999, "REV_AT_EPOCH": 88137, "BSTAR": 0.00039008, "MEAN_MOTION_DOT": 1.216e-05, "MEAN_MOTION_DDOT": 0}, "tle": {"line1": "1 34159U 97051EN  25359.11528407  .00001216  00000+0  39008-3 0  9998", "line2": "2 34159  86.3491  42.9636 0026227 244.0886 115.7609 14.38523185881372"}}, "geometry": {"type": "Point", "coordinates": [-146.7425071848408, 68.94860405128456]}}, {"type": "Feature", "properties": {"norad_id": 34350, "name": "IRIDIUM 33 DEB", "group": "iridium-33-debris", "lat": 83.40017492413942, "lon": 143.55575169935355, "alt_km": 716.5075527154868, "timestamp": "2025-12-25T11:37:44.824170+00:00", "meta": {"OBJECT_NAME": "IRIDIUM 33 DEB", "OBJECT_ID": "1997-051ES", "EPOCH": "2025-12-24T23:49:25.823136", "MEAN_MOTION": 14.45414925, "ECCENTRICITY": 0.0023509, "INCLINATION": 86.3273, "RA_OF_ASC_NODE": 357.4897, "ARG_OF_PERICENTER": 97.7488, "MEAN_ANOMALY": 319.833, "EPHEMERIS_TYPE": 0, "CLASSIFICATION_TYPE": "U", "NORAD_CAT_ID": 34350, "ELEMENT_SET_NO": 999, "REV_AT_EPOCH": 88470, "BSTAR": 0.00034315, "MEAN_MOTION_DOT": 1.231e-05, "MEAN_MOTION_DDOT": 0}, "tle": {"line1": "1 34350U 97051ES  25358.99265999  .00001231  00000+0  34315-3 0  9993", "line2": "2 34350  86.3273 357.4897 0023509  97.7488 319.8330 14.45414925884704"}}, "geometry": {"type": "Point", "coordinates": [143.55575169935355, 83.40017492413942]}}, {"type": "Feature", "properties": {"norad_id": 34366, "name": "IRIDIUM 33 DEB", "group": "iridium-33-debris", "lat": 77.21953117157526, "lon": -152.49043334310855, "alt_km": 688.605340599951, "timestamp": "2025-12-25T11:37:44.824180+00:00", "meta": {"OBJECT_NAME": "IRIDIUM 33 DEB", "OBJECT_ID": "1997-051FJ", "EPOCH": "2025-12-25T03:10:17.907744", "MEAN_MOTION": 14.54149809, "ECCENTRICITY": 0.0023066, "INCLINATION": 86.3683, "RA_OF_ASC_NODE": 43.9225, "ARG_OF_PERICENTER": 101.255, "MEAN_ANOMALY": 317.3928, "EPHEMERIS_TYPE": 0, "CLASSIFICATION_TYPE": "U", "NORAD_CAT_ID": 34366, "ELEMENT_SET_NO": 999, "REV_AT_EPOCH": 88362, "BSTAR": 0.0009397, "MEAN_MOTION_DOT": 4.007e-05, "MEAN_MOTION_DDOT": 0}, "tle": {"line1": "1 34366U 97051FJ  25359.13215171  .00004007  00000+0  93970-3 0  9990", "line2": "2 34366  86.3683  43.9225 0023066 101.2550 317.3928 14.54149809883629"}}, "geometry": {"type": "Point", "coordinates": [-152.49043334310855, 77.21953117157526]}}, {"type": "Feature", "properties": {"norad_id": 34375, "name": "IRIDIUM 33 DEB", "group": "iridium-33-debris", "lat": 15.37140961239161, "lon": -3.4187645288135977, "alt_km": 816.1806541612896, "timestamp": "2025-12-25T11:37:44.824191+00:00", "meta": {"OBJECT_NAME": "IRIDIUM 33 DEB", "OBJECT_ID": "1997-051FT", "EPOCH": "2025-12-24T13:09:42.393312", "MEAN_MOTION": 14.18013041, "ECCENTRICITY": 0.01036939, "INCLINATION": 86.4324, "RA_OF_ASC_NODE": 177.9413, "ARG_OF_PERICENTER": 89.8064, "MEAN_ANOMALY": 337.6478, "EPHEMERIS_TYPE": 0, "CLASSIFICATION_TYPE": "U", "NORAD_CAT_ID": 34375, "ELEMENT_SET_NO": 999, "REV_AT_EPOCH": 86879, "BSTAR": 0.00038925605, "MEAN_MOTION_DOT": 8.6e-06, "MEAN_MOTION_DDOT": 0}, "tle": {"line1": "1 34375U 97051FT  25358.54840733  .00000860  00000+0  38926-3 0  9995", "line2": "2 34375  86.4324 177.9413 0103693  89.8064 337.6478 14.18013041868799"}}, "geometry": {"type": "Point", "coordinates": [-3.4187645288135977, 15.37140961239161]}}]}